GSAT0221 (GALILEO 25)   
1 43564U 18060A   22217.15477613 -.00000059  00000+0  00000+0 0  9998
2 43564  57.1925  19.8680 0001506 257.6676 102.3352  1.70475834 25086
GSAT0222 (GALILEO 26)   
1 43565U 18060B   22217.96123013 -.00000060  00000+0  00000+0 0  9992
2 43565  57.1950  19.8466 0001011 277.2407  82.7675  1.70475794 25150
GSAT0219 (GALILEO 23)   
1 43566U 18060C   22217.59519221 -.00000060  00000+0  00000+0 0  9992
2 43566  57.1953  19.8586 0000671 272.3796  87.6325  1.70475803 25129
GSAT0220 (GALILEO 24)   
1 43567U 18060D   22218.40191777 -.00000061  00000+0  00000+0 0  9997
2 43567  57.1953  19.8376 0000912 254.3679 105.6415  1.70475474 25120
BEIDOU-3 M13            
1 43622U 18072A   22218.76664721 -.00000029  00000+0  00000+0 0  9999
2 43622  55.5061 109.6652 0006363 296.5513 293.4750  1.86231958 26381
BEIDOU-3 M14            
1 43623U 18072B   22217.38805078 -.00000021  00000+0  00000+0 0  9991
2 43623  55.5081 109.7028 0004874 325.0089 150.9698  1.86231944 26364
GPS BIII-1              
1 43873U 18109A   22218.26364794  .00000011  00000+0  00000+0 0  9990
2 43873  55.0975 147.9297 0019570 191.9596 338.1264  2.00552446 26776
METEOR-M2 2             
1 44387U 19038A   22219.45524537 -.00000019  00000+0  10834-4 0  9998
2 44387  98.7263 179.8339 0002227 105.8181 254.3247 14.23716064160660
GPS BIII-2              
1 44506U 19056A   22218.88226323 -.00000053  00000+0  00000+0 0  9996
2 44506  55.7027  27.0444 0026529 178.1563 338.1077  2.00557554 21783
BEIDOU-3 M23            
1 44542U 19061A   22219.20639205  .00000110  00000+0  00000+0 0  9999
2 44542  54.5730 230.3872 0008581 324.4561  35.5312  1.86231331 19532
BEIDOU-3 M24            
1 44543U 19061B   22218.80056508  .00000111  00000+0  00000+0 0  9995
2 44543  54.5703 230.3707 0006203 306.7239  52.5517  1.86231790 19517
BEIDOU-3 M21            
1 44793U 19078A   22218.52309500 -.00000085  00000+0  10000-3 0  9998
2 44793  54.9553 348.8946 0005881  23.4838 342.8994  1.86232375 18388
BEIDOU-3 M22            
1 44794U 19078B   22219.15682470 -.00000087  00000+0  00000+0 0  9996
2 44794  54.9286 348.8634 0003642  23.6604 319.3652  1.86232901 18387
ELEKTRO-L 3             
1 44903U 19095A   22218.81756914 -.00000093  00000+0  00000+0 0  9991
2 44903   0.0664 141.0659 0001669 355.7353 188.8512  1.00271555  9566
GPS BIII-3              
1 45854U 20041A   22219.01604324 -.00000028  00000+0  00000+0 0  9998
2 45854  55.5593  84.3076 0024490 176.8141  12.5260  2.00558078 15754
GPS BIII-4              
1 46826U 20078A   22218.73527806  .00000046  00000+0  00000+0 0  9994
2 46826  54.5350 268.0555 0022112 190.4263 132.4894  2.00564825 13214
GSAT0223 (GALILEO 27)   
1 49809U 21116A   22219.12916409 -.00000063  00000+0  00000+0 0  9997
2 49809  57.1878  19.7161 0003069 147.0326  29.3342  1.70475638  4136
GSAT0224 (GALILEO 28)   
1 49810U 21116B   22217.50337358 -.00000060  00000+0  00000+0 0  9996
2 49810  57.1886  19.7582 0002828 136.1065 234.9560  1.70475710  4143
